{
    "links": {
        "self": "http://www.neowsapp.com/rest/v1/neo/3608731?api_key=iIulBulltgU6a56xZRHN4H3l9WmuAYTsLGpBGhQ2"
    },
    "id": "3608731",
    "neo_reference_id": "3608731",
    "name": "(2012 SB3)",
    "designation": "2012 SB3",
    "nasa_jpl_url": "http://ssd.jpl.nasa.gov/sbdb.cgi?sstr=3608731",
    "absolute_magnitude_h": 27.7,
    "estimated_diameter": {
        "kilometers": {
            "estimated_diameter_min": 0.0076657557,
            "estimated_diameter_max": 0.0171411509
        },
        "meters": {
            "estimated_diameter_min": 7.6657557353,
            "estimated_diameter_max": 17.1411509231
        },
        "miles": {
            "estimated_diameter_min": 0.0047632783,
            "estimated_diameter_max": 0.0106510141
        },
        "feet": {
            "estimated_diameter_min": 25.1501180466,
            "estimated_diameter_max": 56.2373735944
        }
    },
    "is_potentially_hazardous_asteroid": false,
    "close_approach_data": [
        {
            "close_approach_date": "1950-05-12",
            "close_approach_date_full": "1950-May-12 08:18",
            "epoch_date_close_approach": -619803720000,
            "relative_velocity": {
                "kilometers_per_second": "20.2558644847",
                "kilometers_per_hour": "72921.1121450233",
                "miles_per_hour": "45310.3432658896"
            },
            "miss_distance": {
                "astronomical": "0.4180430533",
                "lunar": "162.6187477337",
                "kilometers": "62538350.341976471",
                "miles": "38859528.9622024598"
            },
            "orbiting_body": "Earth"
        },
        {
            "close_approach_date": "2010-05-19",
            "close_approach_date_full": "2010-May-19 23:38",
            "epoch_date_close_approach": 1274312280000,
            "relative_velocity": {
                "kilometers_per_second": "6.8594947156",
                "kilometers_per_hour": "24694.1809762763",
                "miles_per_hour": "15344.0037293979"
            },
            "miss_distance": {
                "astronomical": "0.0375184117",
                "lunar": "14.5946621513",
                "kilometers": "5612674.476103079",
                "miles": "3487554.1994133302"
            },
            "orbiting_body": "Mars"
        },
        {
            "close_approach_date": "2012-09-13",
            "close_approach_date_full": "2012-Sep-13 03:20",
            "epoch_date_close_approach": 1347506400000,
            "relative_velocity": {
                "kilometers_per_second": "8.275678156",
                "kilometers_per_hour": "29792.4413615526",
                "miles_per_hour": "18511.8644671269"
            },
            "miss_distance": {
                "astronomical": "0.0078052395",
                "lunar": "3.0362381655",
                "kilometers": "1167647.204039865",
                "miles": "725542.328745537"
            },
            "orbiting_body": "Earth"
        }
    ],
    "orbital_data": {
        "orbit_id": "7",
        "orbit_determination_date": "2017-04-06 08:48:56",
        "first_observation_date": "2012-09-17",
        "last_observation_date": "2012-09-23",
        "data_arc_in_days": 6,
        "observations_used": 25,
        "orbit_uncertainty": "8",
        "minimum_orbit_intersection": ".0034319",
        "jupiter_tisserand_invariant": "4.515",
        "epoch_osculation": "2456190.5",
        "eccentricity": ".3650634143297838",
        "semi_major_axis": "1.47660086645007",
        "inclination": "2.693536469255443",
        "ascending_node_longitude": "173.4864870033954",
        "orbital_period": "655.379881115485",
        "perihelion_distance": ".9375479125414903",
        "perihelion_argument": "133.7664207816059",
        "aphelion_distance": "2.015653820358649",
        "perihelion_time": "2456148.010792867817",
        "mean_anomaly": "23.33931054085949",
        "mean_motion": ".5492997425970177",
        "equinox": "J2000",
        "orbit_class": {
            "orbit_class_type": "APO",
            "orbit_class_description": "Near-Earth asteroid orbits which cross the Earth’s orbit similar to that of 1862 Apollo",
            "orbit_class_range": "a (semi-major axis) > 1.0 AU; q (perihelion) < 1.017 AU"
        }
    },
    "is_sentry_object": false
}